[{"OBJECT_NAME":"POPACS 3","OBJECT_ID":"2013-055F","EPOCH":"2026-03-08T18:51:12.850560","MEAN_MOTION":14.53938339,"ECCENTRICITY":0.05603673,"INCLINATION":81.0053,"RA_OF_ASC_NODE":337.8959,"ARG_OF_PERICENTER":15.4614,"MEAN_ANOMALY":346.2932,"EPHEMERIS_TYPE":0,"CLASSIFICATION_TYPE":"U","NORAD_CAT_ID":39270,"ELEMENT_SET_NO":999,"REV_AT_EPOCH":62395,"BSTAR":0.00046789991,"MEAN_MOTION_DOT":0.00019405,"MEAN_MOTION_DDOT":0},{"OBJECT_NAME":"STARLINK-34478","OBJECT_ID":"2025-129Z","EPOCH":"2026-03-09T10:58:08.947200","MEAN_MOTION":14.98328243,"ECCENTRICITY":0.00033112,"INCLINATION":70.0017,"RA_OF_ASC_NODE":74.9962,"ARG_OF_PERICENTER":268.3923,"MEAN_ANOMALY":91.6856,"EPHEMERIS_TYPE":0,"CLASSIFICATION_TYPE":"U","NORAD_CAT_ID":64435,"ELEMENT_SET_NO":999,"REV_AT_EPOCH":4119,"BSTAR":0.00011620674,"MEAN_MOTION_DOT":1.294e-5,"MEAN_MOTION_DDOT":0}]
