POPACS 3                
1 39270U 13055F   26067.78556540  .00019405  00000+0  46790-3 0  9993
2 39270  81.0053 337.8959 0560367  15.4614 346.2932 14.53938339623954
STARLINK-34478          
1 64435U 25129Z   26068.45704800  .00001294  00000+0  11621-3 0  9990
2 64435  70.0017  74.9962 0003311 268.3923  91.6856 14.98328243 41191
